OBJECT_NAME,OBJECT_ID,EPOCH,MEAN_MOTION,ECCENTRICITY,INCLINATION,RA_OF_ASC_NODE,ARG_OF_PERICENTER,MEAN_ANOMALY,EPHEMERIS_TYPE,CLASSIFICATION_TYPE,NORAD_CAT_ID,ELEMENT_SET_NO,REV_AT_EPOCH,BSTAR,MEAN_MOTION_DOT,MEAN_MOTION_DDOT
HAWK-5A,2022-057AB,2026-06-13T10:21:29.799360,15.51266284,.00057991,97.6590,323.0376,90.4092,269.7823,0,U,52757,999,22576,.32830991E-3,.19171E-3,0
HAWK-6C,2023-011C,2026-06-09T09:05:18.780576,15.22867772,.00043141,40.4982,34.4522,308.3612,51.6810,0,U,55326,999,18666,.18394517E-3,.4206E-4,0
HAWK-6A,2023-011D,2026-06-12T20:30:20.255040,15.22893204,.00035412,40.4993,15.8058,323.3338,36.7228,0,U,55327,999,18719,.21197509E-3,.4881E-4,0
HAWK-7A,2023-054P,2026-06-13T15:18:48.136032,15.27326279,.00045619,97.2709,52.0657,65.0294,295.1419,0,U,56191,999,17648,.22494754E-3,.595E-4,0
HAWK-7C,2023-054Y,2026-06-13T15:18:31.199904,15.27326272,.00039142,97.2715,51.0984,67.3718,292.7935,0,U,56200,999,17648,.22280539E-3,.5892E-4,0
