{"fetched_at":"2026-06-14T03:48:42Z","count":16735,"tles":[{"name":"HAWK-6A","line1":"1 55327U 23011D   26163.85440110  .00004881  00000+0  21198-3 0  9994","line2":"2 55327  40.4993  15.8058 0003541 323.3338  36.7228 15.22893204187198","category":"Other"},{"name":"HAWK-7C","line1":"1 56200U 23054Y   26164.63786111  .00005892  00000+0  22281-3 0  9990","line2":"2 56200  97.2715  51.0984 0003914  67.3718 292.7935 15.27326272176482","category":"Other"},{"name":"HAWK-5A","line1":"1 52757U 22057AB  26164.43159490  .00019171  00000+0  32831-3 0  9994","line2":"2 52757  97.6590 323.0376 0005799  90.4092 269.7823 15.51266284225761","category":"Other"},{"name":"HAWK-7A","line1":"1 56191U 23054P   26164.63805713  .00005950  00000+0  22495-3 0  9991","line2":"2 56191  97.2709  52.0657 0004561  65.0294 295.1419 15.27326279176486","category":"Other"},{"name":"HAWK-6C","line1":"1 55326U 23011C   26160.37868959  .00004206  00000+0  18395-3 0  9998","line2":"2 55326  40.4982  34.4522 0004314 308.3612  51.6810 15.22867772186660","category":"Other"}]}